ONEWEB-0196             
1 48218U 21031J   25308.44121450  .00000050  00000+0  10122-3 0  9992
2 48218  87.9004 334.4847 0001974  92.7377 267.3979 13.14504182218702
ONEWEB-0183             
1 48219U 21031K   25308.49197236 -.00000172  00000+0 -49934-3 0  9993
2 48219  87.8995 334.4819 0001649  90.4316 269.7003 13.14504470218802
ONEWEB-0185             
1 48220U 21031L   25308.51814998  .00000230  00000+0  58696-3 0  9997
2 48220  87.9003 334.4468 0001768  81.2674 278.8656 13.14502461218737
ONEWEB-0187             
1 48221U 21031M   25308.49816389 -.00000445  00000+0 -12349-2 0  9995
2 48221  87.9001 334.4963 0001928  85.8746 274.2604 13.14502607218740
ONEWEB-0192             
1 48222U 21031N   25308.46818872  .00000054  00000+0  11200-3 0  9992
2 48222  87.8999 334.4937 0001978  93.8275 266.3081 13.14503859218659
ONEWEB-0219             
1 48223U 21031P   25308.52368339  .00000208  00000+0  52778-3 0  9994
2 48223  87.9005 334.4575 0001839  86.0452 274.0888 13.14504034218864
ONEWEB-0202             
1 48224U 21031Q   25308.50467721 -.00000057  00000+0 -18732-3 0  9994
2 48224  87.9002 334.4749 0002629  90.6823 269.4608 13.14503273218846
ONEWEB-0204             
1 48225U 21031R   25308.46263395  .00000127  00000+0  30806-3 0  9993
2 48225  87.9008 334.4715 0001571  92.0093 268.1217 13.14500961218737
